KUIPER-00176            
1 65788U 25217AC  25284.11374661  .00049114  00000+0  13457-2 0  9991
2 65788  51.8736   7.0242 0001938  66.1209 293.9981 15.36820249  2414
